0 DMSP 5D-2 F11 DEB
1 29077U 91082BY  13282.38836355  .00002582  00000-0  16667-2 0  6275
2 29077 098.6417 140.4968 0113293 109.6136 251.7295 14.00616201476772
0 DMSP 5D-2 F11 DEB
1 29077U 91082BY  13283.38848019  .00002640  00000-0  17035-2 0  6282
2 29077 098.6420 141.4443 0113366 106.5494 254.8160 14.00622230476919
0 DMSP 5D-2 F11 DEB
1 29077U 91082BY  13284.38859001  .00002694  00000-0  17377-2 0  6295
2 29077 098.6422 142.3914 0113441 103.9047 257.4820 14.00628477477050
0 DMSP 5D-2 F11 DEB
1 29077U 91082BY  13285.38869417  .00002753  00000-0  17746-2 0  6306
2 29077 098.6424 143.3395 0113624 101.1941 260.2079 14.00634887477197
0 DMSP 5D-2 F11 DEB
1 29077U 91082BY  13286.38879313  .00002812  00000-0  18124-2 0  6311
2 29077 098.6428 144.2832 0113402 098.0903 263.3130 14.00641385477332
0 DMSP 5D-2 F11 DEB
1 29077U 91082BY  13288.38897915  .00002948  00000-0  18971-2 0  6322
2 29077 098.6443 146.1750 0113727 092.7621 268.6786 14.00654951477616
0 DMSP 5D-2 F11 DEB
1 29077U 91082BY  13289.81766482  .00003126  00000-0  20108-2 0  6330
2 29077 098.6421 147.5241 0113289 087.9443 273.4785 14.00666176477810
0 DMSP 5D-2 F11 DEB
1 29077U 91082BY  13290.38913547  .00003163  00000-0  20329-2 0  6347
2 29077 098.6447 148.0700 0114037 087.2425 274.1982 14.00670352477895
0 DMSP 5D-2 F11 DEB
1 29077U 91082BY  13291.38920293  .00003296  00000-0  21172-2 0  6359
2 29077 098.6426 149.0138 0113994 083.6329 277.7783 14.00678687478036
0 DMSP 5D-2 F11 DEB
1 29077U 91082BY  13292.38926785  .00003354  00000-0  21535-2 0  6361
2 29077 098.6419 149.9587 0113964 080.9584 280.4533 14.00686331478179
0 DMSP 5D-2 F11 DEB
1 29077U 91082BY  13294.81796949  .00003502  00000-0  22473-2 0  6376
2 29077 098.6415 152.2553 0113646 074.0587 287.3167 14.00705213478517
0 DMSP 5D-2 F11 DEB
1 29077U 91082BY  13295.81800979  .00003557  00000-0  22816-2 0  6388
2 29077 098.6423 153.2026 0113715 071.4627 289.8864 14.00713183478656
